{"type": "FeatureCollection", "features": [{"type": "Feature", "properties": {"name": "Kota Semarang", "osm_id": 8409116}, "geometry": {"type": "Polygon", "coordinates": [[[110.4188365, -6.9515242], [110.4190457, -6.9510076], [110.4194212, -6.9510502], [110.4200864, -6.9524134], [110.4210198, -6.9523282], [110.421567, -6.9535849], [110.4220819, -6.9542452], [110.4239273, -6.9550972], [110.424689, -6.9538086], [110.4234767, -6.9532015], [110.420655, -6.9514975], [110.4196894, -6.9505816], [110.419389, -6.9492717], [110.419389, -6.9483558], [110.4195177, -6.9476742], [110.4201615, -6.9474505], [110.4215991, -6.9483132], [110.4231763, -6.9495805], [110.4260838, -6.9513058], [110.4265129, -6.950571], [110.4232192, -6.9470139], [110.4230475, -6.9425302], [110.423305, -6.9389517], [110.4232836, -6.935533], [110.4263949, -6.9356182], [110.4263091, -6.9409326], [110.4266631, -6.9418379], [110.4278219, -6.941593], [110.4285192, -6.9438508], [110.4307186, -6.9431798], [110.4323441, -6.9428231], [110.4337817, -6.9468382], [110.4340124, -6.9476902], [110.4340392, -6.9483558], [110.4353482, -6.9501743], [110.436303, -6.9513165], [110.4364237, -6.9512766], [110.4365954, -6.9507041], [110.4369333, -6.9502675], [110.4370406, -6.949924], [110.436928, -6.9495859], [110.4365042, -6.9490507], [110.4350772, -6.9479138], [110.4342887, -6.9474186], [110.434168, -6.9472881], [110.4340607, -6.9469207], [110.4345837, -6.9468595], [110.4350772, -6.9470192], [110.435273, -6.9466385], [110.4350102, -6.9464068], [110.4351604, -6.946098], [110.4355574, -6.9457119], [110.4356217, -6.944977], [110.4355144, -6.9448013], [110.4356539, -6.9446096], [110.4356298, -6.9444925], [110.4354903, -6.9443886], [110.4357398, -6.9436378], [110.4368287, -6.9430201], [110.4372579, -6.9422], [110.4381645, -6.9419551], [110.4387492, -6.9444579], [110.4393285, -6.9461565], [110.4397309, -6.9457891], [110.4400045, -6.9457678], [110.4405194, -6.9460234], [110.4413134, -6.9460234], [110.4424989, -6.9422639], [110.4431212, -6.9394949], [110.442971, -6.939431], [110.4416299, -6.9396014], [110.4416942, -6.939218], [110.4421556, -6.9383872], [110.4427242, -6.9378121], [110.4433143, -6.937482], [110.4448485, -6.9373755], [110.4453957, -6.9367285], [110.4455888, -6.9366672], [110.4460716, -6.9360815], [110.4467288, -6.9357273], [110.447329, -6.9359021], [110.4507224, -6.9344648], [110.4542471, -6.9330901], [110.4635865, -6.9281859], [110.4654957, -6.9319879], [110.4668264, -6.9355536], [110.4674274, -6.9365341], [110.4681421, -6.9374348], [110.469895, -6.9395801], [110.4710913, -6.9407942], [110.4783386, -6.9441064], [110.4782528, -6.9445271], [110.4795241, -6.9449744], [110.4832444, -6.9459755], [110.4845425, -6.9464281], [110.4856691, -6.9466891], [110.4858541, -6.9459116], [110.488362, -6.9466438], [110.487957, -6.9487472], [110.4915109, -6.9474878], [110.4910067, -6.9491625], [110.4905587, -6.9510875], [110.489974, -6.9526903], [110.4897299, -6.953766], [110.4895985, -6.9548203], [110.4899177, -6.9549881], [110.4900625, -6.9548603], [110.490261, -6.9548842], [110.4901755, -6.9551191], [110.4921979, -6.9545773], [110.4941672, -6.9542598], [110.4946274, -6.9540717], [110.4984798, -6.9530916], [110.4992349, -6.9529627], [110.5002773, -6.9526246], [110.5008982, -6.9542048], [110.5013229, -6.9558238], [110.5029827, -6.9544263], [110.5069095, -6.951407], [110.5070651, -6.9514922], [110.5070007, -6.9519981], [110.5070758, -6.9522697], [110.5084544, -6.9553209], [110.5088353, -6.9563326], [110.5088836, -6.9566255], [110.5084947, -6.957536], [110.5050856, -6.9571047], [110.5044445, -6.9580738], [110.5036613, -6.9576984], [110.5030069, -6.9583241], [110.5020861, -6.9588692], [110.5016283, -6.9594062], [110.5009188, -6.9608882], [110.5005984, -6.961941], [110.5004458, -6.9628003], [110.5004687, -6.9638102], [110.5007891, -6.9652937], [110.5016436, -6.967078], [110.5031276, -6.9675255], [110.5057669, -6.9685265], [110.5054665, -6.969666], [110.5060834, -6.969895], [110.5053806, -6.9724296], [110.5055147, -6.9739578], [110.5061692, -6.9751931], [110.5059037, -6.9764338], [110.5056435, -6.9785397], [110.5052438, -6.9796233], [110.5047798, -6.9792585], [110.5038257, -6.9777092], [110.5035152, -6.9775357], [110.5035943, -6.9781962], [110.5041361, -6.9790935], [110.5039778, -6.9796579], [110.5021683, -6.9792118], [110.5020941, -6.9793037], [110.5018659, -6.9816584], [110.5016362, -6.9824122], [110.5015343, -6.9834087], [110.5011602, -6.9845601], [110.5008581, -6.9850794], [110.5020701, -6.9855507], [110.5028678, -6.9857625], [110.5019953, -6.9881168], [110.5013315, -6.9893937], [110.5015146, -6.9907203], [110.5013849, -6.991653], [110.5014383, -6.9929147], [110.5009396, -6.9922475], [110.5003342, -6.9921879], [110.4992893, -6.9922671], [110.4986056, -6.9928686], [110.4981231, -6.9931491], [110.4976907, -6.9941684], [110.4976901, -6.9947305], [110.4974487, -6.9949711], [110.4969805, -6.9951005], [110.496653, -6.9948047], [110.4952538, -6.9945132], [110.4950273, -6.995187], [110.4945445, -6.9953467], [110.494287, -6.9953467], [110.4941958, -6.9954745], [110.4942334, -6.9957887], [110.4946518, -6.9960336], [110.4946893, -6.9961348], [110.4944533, -6.9966832], [110.4936916, -6.9966406], [110.4935414, -6.9970665], [110.4931068, -6.9969867], [110.4920666, -6.9990276], [110.4933134, -7.000152], [110.492447, -7.0012835], [110.491181, -7.003738], [110.4909557, -7.004345], [110.4909772, -7.005133], [110.4923826, -7.0051543], [110.4938364, -7.0052821], [110.4947805, -7.0056921], [110.4953867, -7.0057294], [110.4986107, -7.0068741], [110.50022, -7.0086737], [110.50125, -7.009302], [110.5024087, -7.0098025], [110.5028272, -7.0096853], [110.5042434, -7.0102391], [110.5048871, -7.0112081], [110.5049783, -7.0117033], [110.5040288, -7.0143068], [110.503947, -7.0150336], [110.5012313, -7.0168332], [110.5001852, -7.0186115], [110.4999009, -7.0194341], [110.4997238, -7.0197296], [110.4997158, -7.0204111], [110.4989433, -7.0211298], [110.4986536, -7.022783], [110.4982513, -7.0235656], [110.4983479, -7.02413], [110.497908, -7.0244388], [110.4978543, -7.0248062], [110.4980153, -7.0250777], [110.4985812, -7.0256767], [110.4990453, -7.025477], [110.4992464, -7.0255409], [110.499292, -7.0258324], [110.499233, -7.0261825], [110.4990292, -7.0263289], [110.4984176, -7.0263422], [110.4983479, -7.027029], [110.4982513, -7.0270822], [110.4977658, -7.0271834], [110.497098, -7.0271195], [110.4967412, -7.027628], [110.4959768, -7.0274762], [110.4957274, -7.0281071], [110.4958991, -7.028577], [110.495486, -7.0298455], [110.494751, -7.0295606], [110.4945713, -7.029558], [110.4941824, -7.0305695], [110.492388, -7.0298721], [110.4927769, -7.0287433], [110.4915673, -7.0284053], [110.4907009, -7.0280592], [110.4885364, -7.0275854], [110.488354, -7.0277211], [110.4881716, -7.0277105], [110.4876969, -7.0275268], [110.4874474, -7.0281125], [110.4868707, -7.0279634], [110.4866695, -7.0282988], [110.4864415, -7.0282083], [110.4854116, -7.028163], [110.484269, -7.028211], [110.483593, -7.0283361], [110.4837245, -7.0286688], [110.4837084, -7.0288286], [110.4830459, -7.0291347], [110.4830486, -7.0292971], [110.4832953, -7.0294408], [110.4836896, -7.0293477], [110.4840195, -7.0294009], [110.4843414, -7.0296325], [110.4844674, -7.0298455], [110.4844406, -7.0299945], [110.4843414, -7.030117], [110.4838425, -7.0300531], [110.483526, -7.0301649], [110.482842, -7.0302315], [110.4827535, -7.0303273], [110.4827321, -7.0305828], [110.482783, -7.0306946], [110.4832497, -7.0309955], [110.4833114, -7.0310993], [110.48329, -7.0315265], [110.4834522, -7.0316676], [110.4841188, -7.0318234], [110.4849556, -7.0317249], [110.4851299, -7.0319458], [110.4849851, -7.0324968], [110.4842046, -7.0327311], [110.4838103, -7.0326193], [110.4836011, -7.032771], [110.4834509, -7.033165], [110.4835179, -7.0342698], [110.4835743, -7.0343363], [110.48388, -7.0342671], [110.4843414, -7.0343283], [110.484623, -7.0345014], [110.4848832, -7.034874], [110.4847866, -7.0356247], [110.4849717, -7.035835], [110.4855296, -7.0358696], [110.4856369, -7.0360586], [110.4851648, -7.0363594], [110.4850388, -7.0365218], [110.4849824, -7.0367028], [110.4850736, -7.0375227], [110.4847196, -7.0378342], [110.4843387, -7.0386567], [110.4843521, -7.0395565], [110.4840559, -7.0406224], [110.4840697, -7.0410557], [110.4839805, -7.0412946], [110.4835765, -7.0418202], [110.4834667, -7.0422162], [110.4836852, -7.0424897], [110.4847855, -7.0429144], [110.4851576, -7.0433417], [110.4852393, -7.0436765], [110.4850614, -7.0438402], [110.4848152, -7.0438809], [110.4823814, -7.0436733], [110.4818376, -7.0438879], [110.4815775, -7.044195], [110.4816795, -7.0446391], [110.4826771, -7.0452549], [110.4835162, -7.0454076], [110.4840957, -7.0453805], [110.4842972, -7.0455436], [110.4842969, -7.045728], [110.4840437, -7.0459395], [110.4832916, -7.0460138], [110.4831001, -7.0460682], [110.48297, -7.0462184], [110.4829697, -7.0465121], [110.4830448, -7.0465941], [110.4840263, -7.046694], [110.4839606, -7.0469572], [110.4836182, -7.0474554], [110.4833507, -7.0481587], [110.4833436, -7.0484046], [110.4839816, -7.0486935], [110.4845072, -7.048808], [110.4852598, -7.0487399], [110.4865365, -7.0496609], [110.4869549, -7.0503743], [110.4912572, -7.0544258], [110.4917561, -7.0551285], [110.4921906, -7.0562625], [110.4922764, -7.0569386], [110.4920297, -7.0574018], [110.4917454, -7.0582802], [110.4917239, -7.0592864], [110.492255, -7.0602234], [110.4928826, -7.0608622], [110.4939877, -7.0612775], [110.4948889, -7.06173], [110.4966216, -7.0634176], [110.4970293, -7.0634868], [110.4976999, -7.0634602], [110.4981129, -7.0632792], [110.4988908, -7.0631035], [110.4997866, -7.0630769], [110.4996849, -7.063599], [110.4998778, -7.0645569], [110.499851, -7.0650413], [110.5000763, -7.0660475], [110.5008273, -7.0662817], [110.5009748, -7.0664281], [110.5011009, -7.0670696], [110.5006422, -7.0673758], [110.4999449, -7.0667582], [110.4996445, -7.0669339], [110.4994513, -7.0675142], [110.4991992, -7.0675887], [110.4980566, -7.067248], [110.497901, -7.0673119], [110.4977991, -7.067594], [110.4978313, -7.0685523], [110.4984858, -7.0689143], [110.4985769, -7.0691539], [110.4985394, -7.0693774], [110.4980351, -7.0694573], [110.4975738, -7.0694094], [110.4970213, -7.0691751], [110.4968925, -7.0689569], [110.4969032, -7.0686854], [110.4974504, -7.068169], [110.4974451, -7.0679401], [110.4969193, -7.0677218], [110.4967638, -7.0678229], [110.4966082, -7.0683447], [110.4963293, -7.0686108], [110.4960825, -7.0685523], [110.495589, -7.0682595], [110.495428, -7.0683553], [110.49553, -7.0685842], [110.4962327, -7.0692124], [110.4963722, -7.0695744], [110.4954012, -7.0711981], [110.4951813, -7.0713046], [110.4948299, -7.0713099], [110.4944061, -7.0709346], [110.4941969, -7.0710358], [110.4938965, -7.0713445], [110.4933654, -7.072356], [110.4912465, -7.0742352], [110.4910426, -7.0752201], [110.49093, -7.0754171], [110.4906081, -7.0758163], [110.4901789, -7.0759548], [110.4898464, -7.076205], [110.4892831, -7.0773548], [110.4879313, -7.077472], [110.4877274, -7.0775997], [110.4873519, -7.0789093], [110.4866331, -7.0794736], [110.4847555, -7.0813049], [110.4839509, -7.0818585], [110.4789029, -7.084664], [110.4776155, -7.0854732], [110.4776369, -7.0846853], [110.4774438, -7.0843286], [110.4770844, -7.0839666], [110.4763548, -7.0834556], [110.4757969, -7.0832693], [110.4742574, -7.082359], [110.4734634, -7.0820981], [110.4719399, -7.0812304], [110.4688178, -7.0799847], [110.4683761, -7.0796994], [110.4675519, -7.0806501], [110.4668008, -7.0800752], [110.466141, -7.079069], [110.4656421, -7.0790318], [110.4654195, -7.0789279], [110.4652854, -7.0791941], [110.4651888, -7.0797371], [110.4649474, -7.0798542], [110.4648475, -7.0796381], [110.4644029, -7.0794683], [110.4643331, -7.0793725], [110.4644217, -7.0789492], [110.4640247, -7.0785553], [110.463471, -7.0783144], [110.4634389, -7.0785983], [110.4633209, -7.0786302], [110.4624894, -7.0785397], [110.462307, -7.0789656], [110.4622748, -7.0792478], [110.461822, -7.079175], [110.461187, -7.0793751], [110.4606022, -7.0793964], [110.4600765, -7.0795135], [110.4587852, -7.0792552], [110.4582255, -7.0788723], [110.4579219, -7.0789584], [110.4564786, -7.0801953], [110.4547244, -7.0821011], [110.4544347, -7.083416], [110.4546332, -7.084156], [110.4545742, -7.084683], [110.4543114, -7.0855614], [110.4542148, -7.0869135], [110.4539412, -7.0878505], [110.4535818, -7.0884573], [110.4532063, -7.0888832], [110.4529059, -7.0890802], [110.4527235, -7.0894422], [110.4527128, -7.0903418], [110.4525357, -7.0906133], [110.4523104, -7.0906027], [110.4507923, -7.0896019], [110.4493278, -7.0890748], [110.4488987, -7.0891068], [110.4485178, -7.0892558], [110.4482067, -7.089522], [110.4470158, -7.0911989], [110.4466885, -7.0914438], [110.4464364, -7.0914171], [110.4463935, -7.0912841], [110.44671, -7.0909434], [110.4466617, -7.090757], [110.4463881, -7.090773], [110.4456532, -7.0911616], [110.4452401, -7.0912308], [110.4429334, -7.0913213], [110.4423863, -7.0914225], [110.4419303, -7.0921624], [110.4415065, -7.0926628], [110.4415441, -7.0930035], [110.4417586, -7.0932803], [110.441705, -7.0937488], [110.4415601, -7.0938552], [110.4412597, -7.0939032], [110.4407448, -7.0937381], [110.4404926, -7.0937807], [110.4393125, -7.094526], [110.438599, -7.0950849], [110.4382878, -7.095202], [110.4372632, -7.0950211], [110.4367697, -7.094856], [110.4362708, -7.0948454], [110.4359007, -7.095053], [110.4356432, -7.0950051], [110.4353106, -7.0947336], [110.4350531, -7.0937701], [110.4346132, -7.0931739], [110.4341358, -7.0927107], [110.4333579, -7.0916354], [110.432961, -7.0915289], [110.4327679, -7.0918483], [110.4322851, -7.0923647], [110.4325211, -7.0926043], [110.4325211, -7.0929396], [110.4324245, -7.0931206], [110.4321241, -7.0934507], [110.4318505, -7.0935997], [110.4305738, -7.093818], [110.4294902, -7.0935358], [110.4287016, -7.093802], [110.4284227, -7.0940575], [110.4268026, -7.0949306], [110.4260516, -7.094872], [110.4244047, -7.0950849], [110.4236001, -7.0948986], [110.4233641, -7.0947336], [110.4232997, -7.0958408], [110.4229349, -7.0965755], [110.4230234, -7.0979169], [110.4224199, -7.0982763], [110.4223126, -7.0984706], [110.4222643, -7.0993143], [110.4221597, -7.0994953], [110.4217386, -7.0996949], [110.4209286, -7.0997854], [110.4205021, -7.0999904], [110.4204351, -7.1002166], [110.420596, -7.1015208], [110.4203761, -7.1022049], [110.4198933, -7.1029501], [110.4194587, -7.1034532], [110.419153, -7.104068], [110.4189518, -7.1049144], [110.4188445, -7.1060269], [110.4185683, -7.1068414], [110.418115, -7.1075228], [110.4176456, -7.1079859], [110.4169455, -7.1083745], [110.4160765, -7.1086087], [110.4150063, -7.1087045], [110.4132226, -7.1086726], [110.4126137, -7.1087977], [110.4122356, -7.1097532], [110.4120398, -7.1098516], [110.4114926, -7.1099155], [110.4110956, -7.1097638], [110.4104787, -7.1097159], [110.4102319, -7.1098942], [110.4097679, -7.1099954], [110.4082096, -7.1091863], [110.4079333, -7.1091304], [110.4076999, -7.1092262], [110.4074666, -7.109644], [110.4072091, -7.1098463], [110.4067907, -7.1098862], [110.4063964, -7.1098224], [110.4057419, -7.1102722], [110.4051679, -7.1099421], [110.4046825, -7.110014], [110.4044545, -7.1102296], [110.404374, -7.1105011], [110.4046315, -7.1112037], [110.40461, -7.1113954], [110.404323, -7.1116243], [110.4032904, -7.1118665], [110.4030704, -7.1118478], [110.4029042, -7.1115897], [110.4029497, -7.1113608], [110.4033735, -7.1105304], [110.403454, -7.1101604], [110.4034111, -7.1099315], [110.4032958, -7.1097452], [110.4030222, -7.1095908], [110.4021612, -7.1097292], [110.4018913, -7.1098641], [110.4018456, -7.1100367], [110.4016097, -7.110227], [110.3993404, -7.1118273], [110.3984301, -7.1127441], [110.3985608, -7.113101], [110.3981578, -7.1131663], [110.3979429, -7.1133143], [110.3973909, -7.1134656], [110.397407, -7.1138588], [110.3968372, -7.1144639], [110.3959995, -7.1144263], [110.3959702, -7.1137311], [110.3957914, -7.1136888], [110.3958212, -7.1135712], [110.3956454, -7.1134065], [110.3952646, -7.1132092], [110.3952467, -7.1129746], [110.3950705, -7.1128408], [110.394841, -7.112868], [110.3944857, -7.113473], [110.3939571, -7.1136048], [110.3935746, -7.1133877], [110.3923205, -7.1132424], [110.391503, -7.1134725], [110.3916679, -7.1128772], [110.3915789, -7.1126637], [110.3914052, -7.112554], [110.3911491, -7.1125653], [110.3904572, -7.1128384], [110.3902717, -7.1126252], [110.3904056, -7.1122408], [110.3901838, -7.1120245], [110.3899716, -7.1119938], [110.3899287, -7.112532], [110.3896396, -7.1127689], [110.3887652, -7.1128943], [110.3884907, -7.1126854], [110.3885948, -7.1129335], [110.3885265, -7.1131854], [110.3883507, -7.1133405], [110.3873794, -7.1138112], [110.3856224, -7.1136], [110.3852485, -7.1136634], [110.3845695, -7.1142128], [110.3842033, -7.1140692], [110.3839515, -7.113766], [110.3835014, -7.1128767], [110.382769, -7.1119998], [110.3823224, -7.1109428], [110.3817259, -7.1108193], [110.3813652, -7.1108782], [110.38106, -7.1110413], [110.3806051, -7.1109602], [110.3804261, -7.1108099], [110.380129, -7.1108645], [110.3800334, -7.1109677], [110.3797679, -7.110686], [110.3793163, -7.1106581], [110.3792649, -7.1105694], [110.3788933, -7.1107359], [110.3777753, -7.1105952], [110.377818, -7.110279], [110.3774287, -7.1096148], [110.3771234, -7.1094589], [110.37702, -7.10829], [110.3770855, -7.1082207], [110.3768089, -7.1079085], [110.3767483, -7.1074522], [110.3769487, -7.1073556], [110.3772505, -7.1073802], [110.3775046, -7.10714], [110.3774078, -7.1069839], [110.3774138, -7.1066777], [110.3774313, -7.1063057], [110.3775583, -7.1059875], [110.3779032, -7.1058854], [110.3783024, -7.105183], [110.3783024, -7.1050629], [110.3784053, -7.1050449], [110.3783992, -7.1046607], [110.3786594, -7.1045586], [110.3786291, -7.1041023], [110.3788582, -7.103457], [110.3787656, -7.1030904], [110.378938, -7.1021808], [110.3789017, -7.1015925], [110.3790287, -7.1012923], [110.3792829, -7.1013043], [110.3793954, -7.1014479], [110.3795678, -7.1014764], [110.3796057, -7.10134], [110.3795009, -7.1010391], [110.379303, -7.1009588], [110.3791723, -7.1006946], [110.3785035, -7.1005073], [110.3781916, -7.1001197], [110.3777236, -7.0998531], [110.3776192, -7.0996351], [110.3776289, -7.0993699], [110.3779182, -7.0986114], [110.3779461, -7.0984026], [110.3778758, -7.0982692], [110.3775613, -7.0986594], [110.3772406, -7.0987435], [110.3770107, -7.0986535], [110.3766416, -7.0979691], [110.3764541, -7.097807], [110.3762959, -7.0975128], [110.3764948, -7.0969421], [110.3761446, -7.095619], [110.3763786, -7.0948218], [110.3762827, -7.094551], [110.3760735, -7.0944283], [110.3753211, -7.0944052], [110.3749671, -7.0945223], [110.3746102, -7.0948365], [110.3746023, -7.09543], [110.3747552, -7.0962287], [110.3750019, -7.0962737], [110.374971, -7.0964658], [110.3740632, -7.0962258], [110.3733706, -7.0959192], [110.3732808, -7.0961262], [110.3733229, -7.0964254], [110.373111, -7.0968752], [110.373202, -7.0973469], [110.3731333, -7.0976706], [110.3731834, -7.0979106], [110.3734214, -7.0982827], [110.3733469, -7.0988889], [110.3731777, -7.0990715], [110.3729671, -7.099652], [110.3726335, -7.1002236], [110.3727282, -7.1005581], [110.3734203, -7.1007609], [110.3733242, -7.1016882], [110.3730157, -7.1026968], [110.373542, -7.102973], [110.3734997, -7.1041257], [110.3738065, -7.1043496], [110.373867, -7.1048058], [110.3731821, -7.1057919], [110.372686, -7.1063082], [110.3721657, -7.1066564], [110.3717664, -7.1072988], [110.37124, -7.107497], [110.3705429, -7.1066205], [110.3700468, -7.1067826], [110.3696754, -7.1074236], [110.3698025, -7.1077658], [110.3702199, -7.108078], [110.3704135, -7.1083481], [110.3702048, -7.1086795], [110.3692863, -7.1074756], [110.3687525, -7.1072552], [110.3684137, -7.1074056], [110.3678839, -7.1073903], [110.3673845, -7.107229], [110.3673158, -7.1074249], [110.3662117, -7.1066869], [110.3650418, -7.1063953], [110.3647951, -7.1057803], [110.3637567, -7.1047055], [110.3626266, -7.104418], [110.3617614, -7.1044361], [110.3609628, -7.1046462], [110.3602423, -7.1046959], [110.3599035, -7.1049961], [110.3595102, -7.1050862], [110.3592319, -7.1053503], [110.358639, -7.1053563], [110.3583789, -7.1059927], [110.3576468, -7.1061728], [110.3572293, -7.1059207], [110.3565336, -7.1062809], [110.3563232, -7.1065497], [110.3560694, -7.1062713], [110.3551526, -7.105644], [110.3547944, -7.105677], [110.3546714, -7.1056098], [110.3545266, -7.1051065], [110.3539904, -7.1044351], [110.3535889, -7.1034508], [110.3535279, -7.1030594], [110.3536177, -7.1028695], [110.3534731, -7.1022545], [110.3533949, -7.1021426], [110.3529696, -7.1021532], [110.3521755, -7.1018055], [110.3519632, -7.1015816], [110.3519859, -7.1013581], [110.3514837, -7.100396], [110.3513527, -7.0989001], [110.3515411, -7.0985814], [110.3515687, -7.0982631], [110.3514651, -7.0980825], [110.3514981, -7.0977133], [110.3514228, -7.0973844], [110.3512538, -7.0969645], [110.3512989, -7.0964509], [110.3512133, -7.0962627], [110.3500596, -7.0956089], [110.349719, -7.0950485], [110.349373, -7.0947368], [110.3492476, -7.0942682], [110.3491048, -7.0942311], [110.3488366, -7.0934273], [110.3482556, -7.0930188], [110.3484207, -7.0924917], [110.3481982, -7.0918835], [110.3480038, -7.09174], [110.3474901, -7.0903823], [110.3476945, -7.0899932], [110.3480546, -7.0885004], [110.3479893, -7.0883257], [110.3475856, -7.0879214], [110.3469029, -7.0866264], [110.3468926, -7.0864361], [110.3470477, -7.0860694], [110.3470535, -7.0858147], [110.3469285, -7.0857704], [110.346967, -7.0850846], [110.3464228, -7.0849664], [110.3461777, -7.0848015], [110.3460957, -7.0844204], [110.3461164, -7.0843587], [110.3466423, -7.0842976], [110.3467252, -7.0839579], [110.346643, -7.0837724], [110.3464267, -7.0836177], [110.3464269, -7.0835147], [110.3469635, -7.0831035], [110.3471085, -7.0826403], [110.3468553, -7.0823887], [110.3460653, -7.0821071], [110.3455719, -7.0827799], [110.3445312, -7.0833521], [110.3441182, -7.0836849], [110.3441262, -7.084313], [110.3439411, -7.0845952], [110.3435361, -7.0849226], [110.3433216, -7.0859021], [110.3426778, -7.0871424], [110.3426832, -7.0875523], [110.3430051, -7.0881273], [110.3430158, -7.0883296], [110.3421575, -7.0893996], [110.3425652, -7.0905654], [110.3429246, -7.0908262], [110.3431928, -7.0912521], [110.3435147, -7.0914384], [110.3436059, -7.0918271], [110.3437722, -7.0920772], [110.3440887, -7.0920666], [110.3443462, -7.09237], [110.3443408, -7.0927214], [110.3437507, -7.09344], [110.3436595, -7.0937381], [110.3437078, -7.093983], [110.3434825, -7.094377], [110.344035, -7.0947123], [110.3439358, -7.0952153], [110.3446654, -7.0955747], [110.3447646, -7.0957024], [110.3448102, -7.0963812], [110.3446546, -7.0967378], [110.3452688, -7.0978477], [110.3454727, -7.0990029], [110.3454606, -7.0994314], [110.3449792, -7.0996271], [110.3450181, -7.0997136], [110.3435039, -7.1008607], [110.3428227, -7.1011375], [110.342195, -7.1010045], [110.3419536, -7.1011269], [110.3418732, -7.1012759], [110.3416157, -7.1013398], [110.3408512, -7.1012573], [110.3405026, -7.1016379], [110.340288, -7.101755], [110.3398937, -7.1015448], [110.3394672, -7.1014702], [110.3392339, -7.1015288], [110.3388315, -7.1017417], [110.3387886, -7.1018695], [110.3388597, -7.1026414], [110.3387806, -7.1032668], [110.3386223, -7.1033174], [110.338228, -7.1032615], [110.3376165, -7.1036315], [110.3371659, -7.103525], [110.3366294, -7.1040254], [110.3363478, -7.1041372], [110.3360876, -7.1039642], [110.3357014, -7.103352], [110.3347278, -7.1031231], [110.3341752, -7.1028197], [110.3336334, -7.1021197], [110.3328744, -7.1019387], [110.3327885, -7.1012626], [110.3322346, -7.1004788], [110.3322588, -7.0999531], [110.3324398, -7.0995219], [110.3321126, -7.0990455], [110.3319839, -7.0990535], [110.330919, -7.0996044], [110.3306508, -7.1003657], [110.3307259, -7.1006744], [110.330632, -7.1010151], [110.3302163, -7.1011775], [110.3297898, -7.1011429], [110.3294358, -7.1015235], [110.3291219, -7.1022421], [110.3289047, -7.102463], [110.3280866, -7.1022528], [110.3277889, -7.1024444], [110.3277326, -7.1027558], [110.3276628, -7.1028596], [110.3275046, -7.1028995], [110.3270405, -7.1025322], [110.3267428, -7.101763], [110.3265497, -7.1016193], [110.3260159, -7.101433], [110.3256029, -7.1017737], [110.3253937, -7.1018296], [110.3248089, -7.1017071], [110.3238487, -7.1019201], [110.3231299, -7.1018668], [110.3228617, -7.1020531], [110.322513, -7.1024657], [110.3221777, -7.1030992], [110.3205979, -7.1042995], [110.3204048, -7.1046988], [110.3202653, -7.1053642], [110.3193909, -7.1057634], [110.3189993, -7.1060296], [110.3188705, -7.1062266], [110.3183985, -7.1061574], [110.3181839, -7.1060243], [110.3175563, -7.1058566], [110.3174892, -7.1062691], [110.3172076, -7.1063836], [110.3171781, -7.1061094], [110.3168803, -7.1056251], [110.3161991, -7.1055345], [110.3157565, -7.105303], [110.3148043, -7.1051859], [110.3141927, -7.1054867], [110.3136671, -7.10546], [110.3134847, -7.1049276], [110.3129858, -7.1050501], [110.3126854, -7.1049862], [110.3123099, -7.104571], [110.31187, -7.104422], [110.3116286, -7.1039589], [110.3112853, -7.1039322], [110.3109473, -7.1036182], [110.3107005, -7.103533], [110.3109419, -7.1022634], [110.3098798, -7.1024098], [110.3080291, -7.1021543], [110.3075355, -7.1022514], [110.3073746, -7.1018029], [110.3066522, -7.1009092], [110.3061515, -7.1007569], [110.3059047, -7.1002805], [110.3057277, -7.1003364], [110.305438, -7.1002911], [110.3054461, -7.0996337], [110.3050196, -7.0990615], [110.305025, -7.0988219], [110.3048748, -7.0987367], [110.3042042, -7.0986569], [110.3039306, -7.0978903], [110.3036195, -7.0976188], [110.3035766, -7.0974858], [110.3037375, -7.0971397], [110.3035659, -7.0967192], [110.3035444, -7.0964051], [110.3041238, -7.0954363], [110.3039414, -7.0944461], [110.3038408, -7.0929356], [110.3040607, -7.0921078], [110.304286, -7.09169], [110.3046401, -7.091304], [110.3052784, -7.090801], [110.3054796, -7.0904669], [110.3051792, -7.0897816], [110.3051095, -7.0892093], [110.3049566, -7.0888446], [110.3047621, -7.0887315], [110.3046092, -7.0883855], [110.3047943, -7.0880794], [110.3049284, -7.0876375], [110.3044832, -7.0858222], [110.304805, -7.0849918], [110.3045368, -7.0846032], [110.3045475, -7.0844488], [110.3043383, -7.0841986], [110.3044778, -7.0835704], [110.3043652, -7.0833309], [110.303877, -7.0830913], [110.3033996, -7.0826335], [110.303008, -7.0819042], [110.3028068, -7.0811589], [110.3025681, -7.0809513], [110.3010607, -7.0801474], [110.3009856, -7.0799105], [110.3010365, -7.0795006], [110.3012779, -7.0792051], [110.3014979, -7.0791093], [110.3018251, -7.079088], [110.3030884, -7.0793169], [110.3032923, -7.0792397], [110.3033352, -7.0791359], [110.3029436, -7.0776374], [110.3027853, -7.0764209], [110.3026941, -7.0762985], [110.3021201, -7.0761335], [110.3019753, -7.0757528], [110.3018814, -7.0747706], [110.3016266, -7.0746109], [110.3014925, -7.0743261], [110.3014952, -7.0737964], [110.3018761, -7.0728648], [110.3018814, -7.0726864], [110.3016454, -7.0725081], [110.3010258, -7.0726385], [110.3007495, -7.072391], [110.3007281, -7.072202], [110.3009292, -7.0715658], [110.3009266, -7.0712038], [110.3008971, -7.0709589], [110.3005806, -7.0704851], [110.3006127, -7.0702056], [110.3013369, -7.0688295], [110.3013933, -7.0684302], [110.3013128, -7.0681747], [110.3012109, -7.0680176], [110.3008059, -7.0678473], [110.299387, -7.0676636], [110.2992046, -7.0674027], [110.2993655, -7.0666947], [110.2995586, -7.0663433], [110.3007388, -7.0649805], [110.3007549, -7.0645013], [110.2998912, -7.0640382], [110.299505, -7.063591], [110.2984321, -7.0614775], [110.2981907, -7.0613816], [110.2977991, -7.0613603], [110.2974129, -7.0614668], [110.2972251, -7.0613976], [110.2970481, -7.0610782], [110.2968174, -7.060269], [110.2968121, -7.0597419], [110.2966887, -7.0593959], [110.296517, -7.0592308], [110.295589, -7.0593639], [110.2952939, -7.0592841], [110.293985, -7.057687], [110.2938777, -7.0573729], [110.2939689, -7.0570108], [110.2938992, -7.0566009], [110.2936792, -7.0563187], [110.2921987, -7.0558183], [110.2918714, -7.055451], [110.2918285, -7.0551369], [110.2920002, -7.0546843], [110.2927834, -7.0540827], [110.2935451, -7.0538485], [110.2937382, -7.0539071], [110.293926, -7.054104], [110.2939904, -7.0543543], [110.294162, -7.0544022], [110.2944088, -7.0543117], [110.2944678, -7.0539869], [110.2943551, -7.0536355], [110.2936149, -7.0529275], [110.2933037, -7.0525016], [110.2929389, -7.0521981], [110.2925473, -7.0520278], [110.2922523, -7.0519692], [110.2917641, -7.0520597], [110.2909917, -7.0520544], [110.2904284, -7.0518734], [110.2892697, -7.0510162], [110.2888513, -7.0508192], [110.287435, -7.0504998], [110.2870434, -7.0509577], [110.2866089, -7.0516817], [110.2861208, -7.0520437], [110.2856004, -7.0520331], [110.2843988, -7.0510854], [110.2832884, -7.0497172], [110.2828968, -7.0488814], [110.2820975, -7.0475238], [110.2815342, -7.0470233], [110.2812284, -7.0465814], [110.2812552, -7.045868], [110.2811533, -7.0455379], [110.280928, -7.0452345], [110.2804935, -7.0450322], [110.2802414, -7.0447926], [110.2800536, -7.0444412], [110.2797961, -7.0435042], [110.2793348, -7.042876], [110.2777576, -7.0412894], [110.2772748, -7.0404908], [110.2763146, -7.0399372], [110.2759445, -7.0399212], [110.2751291, -7.0401874], [110.274775, -7.0401448], [110.2745712, -7.0399372], [110.2746516, -7.0396337], [110.2749252, -7.0394101], [110.275054, -7.0391173], [110.275113, -7.038686], [110.2739918, -7.0373657], [110.2739489, -7.0369344], [110.27367, -7.0363701], [110.2732408, -7.0360293], [110.271669, -7.0360453], [110.271492, -7.0359016], [110.2713203, -7.0356567], [110.2712399, -7.0353585], [110.2714866, -7.0350018], [110.27183, -7.0348794], [110.2723771, -7.0349858], [110.273053, -7.0353692], [110.2734822, -7.035465], [110.2738362, -7.0354064], [110.2740455, -7.0351509], [110.2741098, -7.0346504], [110.2740294, -7.0342139], [110.2737719, -7.0338305], [110.2734232, -7.0334951], [110.2729887, -7.0334791], [110.2723342, -7.0338145], [110.2719533, -7.0338678], [110.2716368, -7.0337027], [110.2715242, -7.0334259], [110.2720177, -7.0327125], [110.2719963, -7.032425], [110.2715295, -7.0314666], [110.2713311, -7.0306041], [110.2713042, -7.0301356], [110.271492, -7.0299599], [110.2718192, -7.0298801], [110.2723396, -7.0299493], [110.2723557, -7.0298002], [110.2719372, -7.028746], [110.2718192, -7.0274629], [110.2718997, -7.0270689], [110.2722162, -7.0265791], [110.2720874, -7.0263289], [110.2717334, -7.0263129], [110.2705747, -7.0257166], [110.270403, -7.0248754], [110.2704567, -7.0246944], [110.2706069, -7.0246411], [110.2715939, -7.0248807], [110.2719533, -7.0248328], [110.2721035, -7.024721], [110.2720982, -7.0246092], [110.27183, -7.023917], [110.2714544, -7.0234219], [110.2706873, -7.0226392], [110.2700758, -7.0217075], [110.2684235, -7.0199505], [110.2675331, -7.0191306], [110.2672863, -7.0185449], [110.2674365, -7.018119], [110.2684343, -7.0176505], [110.268681, -7.0173736], [110.2680588, -7.0162981], [110.2682304, -7.0158828], [110.2688849, -7.0158189], [110.2696574, -7.0159467], [110.2700007, -7.0158189], [110.26999, -7.0155527], [110.2697968, -7.0151481], [110.2691531, -7.0146369], [110.2691256, -7.0141751], [110.2698934, -7.0137105], [110.2699685, -7.0131781], [110.2702474, -7.0130077], [110.2704728, -7.0133059], [110.2706551, -7.0133272], [110.2710628, -7.0131461], [110.2712667, -7.0128373], [110.2716637, -7.0114956], [110.2719319, -7.0111974], [110.2723932, -7.011453], [110.2729726, -7.0113359], [110.2731228, -7.0108247], [110.2735734, -7.0103243], [110.2740133, -7.0104627], [110.2748823, -7.011485], [110.2765131, -7.0126031], [110.277307, -7.0122091], [110.2781224, -7.0123049], [110.2787769, -7.0129225], [110.2791846, -7.0137531], [110.2800858, -7.0141897], [110.2806759, -7.0136786], [110.2828002, -7.013029], [110.2830414, -7.0130709], [110.2831006, -7.0123901], [110.283283, -7.0115808], [110.2834332, -7.0109206], [110.2836478, -7.0103988], [110.2837658, -7.0085992], [110.28368, -7.0082584], [110.2838945, -7.0072787], [110.2833152, -7.0070019], [110.2835941, -7.0059583], [110.2803111, -7.004542], [110.2810407, -7.0030192], [110.2813089, -7.0022206], [110.283004, -7.0022099], [110.2838194, -7.002391], [110.2842057, -7.0023058], [110.2847743, -7.0010279], [110.2852785, -7.0007084], [110.285579, -7.0006978], [110.2858081, -7.0007894], [110.2861811, -7.000562], [110.2865781, -7.0004915], [110.2869898, -6.9997101], [110.2867591, -6.9990153], [110.2867162, -6.9984083], [110.2870059, -6.9983763], [110.2872419, -6.998174], [110.2875745, -6.9971517], [110.2875745, -6.9967577], [110.2873599, -6.9959484], [110.2869093, -6.9954372], [110.286802, -6.9951604], [110.286845, -6.9948835], [110.287199, -6.9946812], [110.2870703, -6.9943084], [110.2869952, -6.9931264], [110.2866304, -6.9931051], [110.2866304, -6.9936589], [110.2865124, -6.9939464], [110.2863622, -6.9939357], [110.2855468, -6.9932009], [110.2849781, -6.9919763], [110.2846455, -6.9919231], [110.2843022, -6.9922745], [110.2841949, -6.9927004], [110.2839911, -6.9928708], [110.2837872, -6.9928815], [110.2836156, -6.9925727], [110.2835083, -6.9912522], [110.2833152, -6.9909114], [110.2829718, -6.9907091], [110.2826607, -6.9906665], [110.2819633, -6.9907517], [110.2817058, -6.9906452], [110.2821779, -6.989165], [110.2827895, -6.9890904], [110.2839911, -6.9894844], [110.2842379, -6.9894099], [110.2843237, -6.9892288], [110.2844953, -6.9891437], [110.2852464, -6.9888881], [110.2853, -6.9886751], [110.2845275, -6.9874504], [110.2844095, -6.9870245], [110.284667, -6.9859915], [110.284903, -6.9856614], [110.2851605, -6.985491], [110.2859974, -6.9852248], [110.2862763, -6.9855975], [110.2865231, -6.9856081], [110.2872634, -6.9852993], [110.2885723, -6.9852674], [110.2899724, -6.9853898], [110.2902138, -6.985262], [110.290364, -6.984884], [110.2910346, -6.9848361], [110.291158, -6.9844527], [110.2914476, -6.984261], [110.2916461, -6.9843089], [110.2918822, -6.9846391], [110.2920216, -6.9846976], [110.2921772, -6.9846817], [110.2922416, -6.9845326], [110.2924025, -6.9844261], [110.2929068, -6.9845645], [110.2930784, -6.9845219], [110.293293, -6.9842024], [110.29369, -6.9832014], [110.2938402, -6.9824134], [110.2929819, -6.9820939], [110.2924883, -6.9821791], [110.2921557, -6.9821152], [110.2915549, -6.9817638], [110.2914476, -6.9815614], [110.2914369, -6.9810822], [110.2922416, -6.9782708], [110.2918231, -6.9779407], [110.2915603, -6.9768917], [110.2916193, -6.9766894], [110.2915549, -6.976503], [110.2911848, -6.9759279], [110.2912116, -6.9756777], [110.2911043, -6.97547], [110.2908897, -6.9751079], [110.2904713, -6.97465], [110.2904606, -6.9744583], [110.2896345, -6.9736915], [110.2894628, -6.9731697], [110.2886796, -6.9728183], [110.2879822, -6.9723604], [110.2876389, -6.9720728], [110.2872956, -6.9715723], [110.2866304, -6.9714764], [110.2859115, -6.9706564], [110.2863192, -6.9699962], [110.2849567, -6.9692933], [110.2853429, -6.9683881], [110.28771, -6.9689166], [110.2877918, -6.9684426], [110.28817, -6.9677012], [110.2874136, -6.9674083], [110.2878374, -6.9663008], [110.288052, -6.9653476], [110.2890551, -6.9655233], [110.2895915, -6.9657097], [110.2922094, -6.967174], [110.2945697, -6.9681751], [110.2956748, -6.9684733], [110.3001058, -6.9590909], [110.2932608, -6.9567799], [110.2935719, -6.9560983], [110.2914905, -6.9555871], [110.2921665, -6.9540642], [110.2926814, -6.9534039], [110.2919304, -6.952914], [110.2931428, -6.9519022], [110.2915764, -6.9503899], [110.29266, -6.9492717], [110.2938723, -6.9472056], [110.2940655, -6.9471204], [110.2943981, -6.947163], [110.2945483, -6.9470352], [110.2962327, -6.9453099], [110.2965224, -6.9447987], [110.2968228, -6.9445963], [110.2974129, -6.9439892], [110.2978849, -6.9432437], [110.2984214, -6.9419977], [110.2991402, -6.9406664], [110.2999663, -6.9400274], [110.3008675, -6.940038], [110.3010821, -6.9398996], [110.3015005, -6.9391328], [110.3033459, -6.938121], [110.3038072, -6.9380145], [110.3047299, -6.938302], [110.3049552, -6.9382062], [110.3059745, -6.936779], [110.3069401, -6.936992], [110.3090966, -6.9365021], [110.3099871, -6.936152], [110.3143966, -6.9378334], [110.3142531, -6.9379788], [110.318023, -6.9398889], [110.3183019, -6.9397931], [110.3209197, -6.9409113], [110.3214776, -6.9410604], [110.3241867, -6.9429562], [110.3266168, -6.9442928], [110.3331828, -6.9470032], [110.3387987, -6.9584946], [110.3447712, -6.960217], [110.3477591, -6.9546101], [110.3542006, -6.9536701], [110.3592109, -6.9539896], [110.3603696, -6.953947], [110.360949, -6.9537766], [110.361464, -6.9530311], [110.3686631, -6.9472588], [110.377289, -6.9466198], [110.3788769, -6.946311], [110.3800034, -6.9463429], [110.3805399, -6.9466198], [110.3813553, -6.947525], [110.3822243, -6.9475464], [110.3831148, -6.9473866], [110.3863978, -6.9464707], [110.3865909, -6.9470032], [110.3871059, -6.9476848], [110.386827, -6.9480043], [110.3861832, -6.9478552], [110.3855824, -6.9481108], [110.385561, -6.9490693], [110.3863549, -6.9514762], [110.3871059, -6.9517105], [110.3905177, -6.9509437], [110.3889513, -6.9486859], [110.3908396, -6.9470884], [110.3925562, -6.9461086], [110.3937846, -6.9455229], [110.3947234, -6.9448146], [110.4002649, -6.9446229], [110.4018581, -6.9447135], [110.402019, -6.947163], [110.402196, -6.9481375], [110.4024643, -6.948883], [110.4030114, -6.9490587], [110.4032421, -6.9490267], [110.4034835, -6.9488031], [110.4038376, -6.9486433], [110.4053396, -6.94867], [110.4060852, -6.9487711], [110.4073405, -6.9493409], [110.4075712, -6.9486753], [110.4076463, -6.9477541], [110.4091376, -6.9470405], [110.4124743, -6.946279], [110.4144001, -6.9460128], [110.4163957, -6.9458424], [110.4163259, -6.9427858], [110.4189813, -6.9427964], [110.4188365, -6.9515242]]]}}]}